{
  "type": "FeatureCollection",
  "features": [
    {
      "type": "Feature",
      "geometry": {
        "type": "Polygon",
        "coordinates": [
          [
            [
              -73.98229750286417,
              40.7128
            ],
            [
              -73.98275293970038,
              40.716305036327995
            ],
            [
              -73.9841017480268,
              40.71967537607555
            ],
            [
              -73.98629209389587,
              40.72278149897628
            ],
            [
              -73.9892398035442,
              40.72550403846904
            ],
            [
              -73.9928315981431,
              40.72773836888794
            ],
            [
              -73.99692944704043,
              40.729398626168006
            ],
            [
              -74.00137587220118,
              40.73042100755306
            ],
            [
              -74.006,
              40.73076622349982
            ],
            [
              -74.01062412779882,
              40.73042100755306
            ],
            [
              -74.01507055295957,
              40.729398626168006
            ],
            [
              -74.0191684018569,
              40.72773836888794
            ],
            [
              -74.0227601964558,
              40.72550403846904
            ],
            [
              -74.02570790610413,
              40.72278149897628
            ],
            [
              -74.0278982519732,
              40.71967537607555
            ],
            [
              -74.02924706029962,
              40.716305036327995
            ],
            [
              -74.02970249713583,
              40.7128
            ],
            [
              -74.02924706029962,
              40.70929496367201
            ],
            [
              -74.0278982519732,
              40.70592462392445
            ],
            [
              -74.02570790610413,
              40.70281850102372
            ],
            [
              -74.0227601964558,
              40.70009596153096
            ],
            [
              -74.0191684018569,
              40.69786163111206
            ],
            [
              -74.01507055295957,
              40.696201373832
            ],
            [
              -74.01062412779882,
              40.69517899244694
            ],
            [
              -74.006,
              40.69483377650018
            ],
            [
              -74.00137587220118,
              40.69517899244694
            ],
            [
              -73.99692944704043,
              40.696201373832
            ],
            [
              -73.9928315981431,
              40.69786163111206
            ],
            [
              -73.9892398035442,
              40.70009596153096
            ],
            [
              -73.98629209389587,
              40.70281850102372
            ],
            [
              -73.9841017480268,
              40.70592462392445
            ],
            [
              -73.98275293970038,
              40.70929496367201
            ],
            [
              -73.98229750286417,
              40.7128
            ]
          ]
        ]
      },
      "properties": {
        "entity_type": "area",
        "id": "area-downtown",
        "name": "Downtown Business District",
        "population_density": 15000,
        "historical_incident_count": 45,
        "strategic_importance": "CRITICAL",
        "strategic_importance_value": 4,
        "available_resources": [
          "hospital",
          "fire_station",
          "police_precinct",
          "shelter"
        ],
        "zoning": "commercial",
        "evacuation_routes": 6
      }
    },
    {
      "type": "Feature",
      "geometry": {
        "type": "Polygon",
        "coordinates": [
          [
            [
              -74.00221853292209,
              40.73
            ],
            [
              -74.002560198826,
              40.73262877724599
            ],
            [
              -74.00357206650868,
              40.735156532056656
            ],
            [
              -74.00521525046256,
              40.737486124232205
            ],
            [
              -74.00742660404975,
              40.73952802885177
            ],
            [
              -74.01012114619209,
              40.74120377666595
            ],
            [
              -74.01319532714614,
              40.742448969626004
            ],
            [
              -74.01653100786184,
              40.74321575566479
            ],
            [
              -74.02,
              40.74347466762486
            ],
            [
              -74.02346899213815,
              40.74321575566479
            ],
            [
              -74.02680467285386,
              40.742448969626004
            ],
            [
              -74.0298788538079,
              40.74120377666595
            ],
            [
              -74.03257339595024,
              40.73952802885177
            ],
            [
              -74.03478474953744,
              40.737486124232205
            ],
            [
              -74.03642793349131,
              40.735156532056656
            ],
            [
              -74.03743980117399,
              40.73262877724599
            ],
            [
              -74.0377814670779,
              40.73
            ],
            [
              -74.03743980117399,
              40.727371222754
            ],
            [
              -74.03642793349131,
              40.72484346794334
            ],
            [
              -74.03478474953744,
              40.72251387576779
            ],
            [
              -74.03257339595024,
              40.72047197114822
            ],
            [
              -74.0298788538079,
              40.718796223334046
            ],
            [
              -74.02680467285386,
              40.71755103037399
            ],
            [
              -74.02346899213815,
              40.7167842443352
            ],
            [
              -74.02,
              40.716525332375134
            ],
            [
              -74.01653100786184,
              40.7167842443352
            ],
            [
              -74.01319532714614,
              40.71755103037399
            ],
            [
              -74.01012114619209,
              40.718796223334046
            ],
            [
              -74.00742660404975,
              40.72047197114822
            ],
            [
              -74.00521525046256,
              40.72251387576779
            ],
            [
              -74.00357206650868,
              40.72484346794334
            ],
            [
              -74.002560198826,
              40.727371222754
            ],
            [
              -74.00221853292209,
              40.73
            ]
          ]
        ]
      },
      "properties": {
        "entity_type": "area",
        "id": "area-residential",
        "name": "North Residential Zone",
        "population_density": 8000,
        "historical_incident_count": 12,
        "strategic_importance": "MEDIUM",
        "strategic_importance_value": 2,
        "available_resources": [
          "fire_station",
          "shelter"
        ],
        "zoning": "residential",
        "schools": 3
      }
    },
    {
      "type": "Feature",
      "geometry": {
        "type": "Polygon",
        "coordinates": [
          [
            [
              -74.02,
              40.695
            ],
            [
              -73.995,
              40.695
            ],
            [
              -73.995,
              40.705
            ],
            [
              -74.02,
              40.705
            ],
            [
              -74.02,
              40.695
            ]
          ]
        ]
      },
      "properties": {
        "entity_type": "area",
        "id": "area-industrial",
        "name": "South Industrial Park",
        "population_density": 500,
        "historical_incident_count": 28,
        "strategic_importance": "HIGH",
        "strategic_importance_value": 3,
        "available_resources": [
          "hazmat_team",
          "fire_station"
        ],
        "zoning": "industrial",
        "hazardous_ materials": true
      }
    }
  ]
}