{
  "type": "FeatureCollection",
  "features": [
    {
      "type": "Feature",
      "geometry": {
        "type": "Point",
        "coordinates": [
          -74.007,
          40.715
        ]
      },
      "properties": {
        "entity_type": "personnel",
        "id": "pers-fire-chief",
        "name": "Chief Sarah Johnson",
        "role": "Fire Chief",
        "criticality": "CRITICAL",
        "criticality_value": 4,
        "on_duty": true,
        "safety_clearances": [
          "fire",
          "hazmat",
          "chemical"
        ],
        "contact_phone": "+1-555-0101",
        "contact_email": "sjohnson@firecity.gov",
        "station": "Station 1",
        "years_service": 15
      }
    },
    {
      "type": "Feature",
      "geometry": {
        "type": "Point",
        "coordinates": [
          -74.005,
          40.725
        ]
      },
      "properties": {
        "entity_type": "personnel",
        "id": "pers-emt-001",
        "name": "Dr. Michael Chen",
        "role": "Emergency Medical Director",
        "criticality": "HIGH",
        "criticality_value": 3,
        "on_duty": true,
        "safety_clearances": [
          "medical",
          "radiation",
          "chemical"
        ],
        "contact_phone": "+1-555-0102",
        "contact_email": "mchen@metrohealth.org",
        "hospital": "Metro General",
        "specialty": "trauma"
      }
    },
    {
      "type": "Feature",
      "geometry": {
        "type": "Point",
        "coordinates": [
          -74.009,
          40.718
        ]
      },
      "properties": {
        "entity_type": "personnel",
        "id": "pers-police-001",
        "name": "Captain Robert Martinez",
        "role": "Police Commander",
        "criticality": "HIGH",
        "criticality_value": 3,
        "on_duty": true,
        "safety_clearances": [
          "security"
        ],
        "contact_phone": "+1-555-0103",
        "contact_email": "rmartinez@citypd.gov",
        "precinct": "Downtown",
        "swat_certified": true
      }
    },
    {
      "type": "Feature",
      "geometry": {
        "type": "Point",
        "coordinates": [
          -74.006,
          40.7128
        ]
      },
      "properties": {
        "entity_type": "personnel",
        "id": "pers-engineer-001",
        "name": "Emily Rodriguez",
        "role": "Infrastructure Engineer",
        "criticality": "MEDIUM",
        "criticality_value": 2,
        "on_duty": true,
        "safety_clearances": [
          "radiation",
          "chemical"
        ],
        "contact_phone": "+1-555-0104",
        "contact_email": "erodriguez@cityworks.gov",
        "department": "Public Works",
        "specialization": "power_systems"
      }
    },
    {
      "type": "Feature",
      "geometry": {
        "type": "Point",
        "coordinates": [
          -74.011,
          40.721
        ]
      },
      "properties": {
        "entity_type": "personnel",
        "id": "pers-responder-001",
        "name": "James Wilson",
        "role": "First Responder",
        "criticality": "MEDIUM",
        "criticality_value": 2,
        "on_duty": false,
        "safety_clearances": [
          "fire",
          "medical"
        ],
        "contact_phone": "+1-555-0105",
        "contact_email": "jwilson@firecity.gov",
        "station": "Station 2"
      }
    }
  ]
}